<?xml version="1.0" encoding="UTF-8"?>

<q:quakeml xmlns:q="http://quakeml.org/xmlns/quakeml/1.2" xmlns="http://quakeml.org/xmlns/bed/1.2" xmlns:catalog="http://anss.org/xmlns/catalog/0.1">
 <eventParameters publicID="quakeml:uw.anss.org/Event/UW/62216081#176608048030">
  <creationInfo>
   <agencyID>UW</agencyID>
   <creationTime>2025-12-18T17:54:40.30</creationTime>
  </creationInfo>
  <event publicID="quakeml:uw.anss.org/Event/UW/62216081" catalog:datasource="uw" catalog:dataid="uw62216081" catalog:eventsource="uw" catalog:eventid="62216081">
   <preferredOriginID>quakeml:uw.anss.org/Origin/UW/3364353</preferredOriginID>
   <preferredMagnitudeID>quakeml:uw.anss.org/Netmag/UW/3427163</preferredMagnitudeID>
   <creationInfo>
    <agencyID>UW</agencyID>
    <creationTime>2025-12-04T00:08:44.00</creationTime>
    <version>3</version>
   </creationInfo>
   <type>earthquake</type>
   <origin publicID="quakeml:uw.anss.org/Origin/UW/3364353" catalog:datasource="uw" catalog:dataid="uw62216081" catalog:eventsource="uw" catalog:eventid="62216081">
    <time>
     <value>2025-12-01T07:51:35.54</value>
    </time>
    <timeFixed>0</timeFixed>
    <latitude>
     <value>46.848333333333336</value>
    </latitude>
    <longitude>
     <value>-121.903</value>
    </longitude>
    <epicenterFixed>0</epicenterFixed>
    <depth>
     <value>7540</value>
     <uncertainty>410</uncertainty>
    </depth>
    <depthType>from location</depthType>
    <type>hypocenter</type>
    <evaluationMode>manual</evaluationMode>
    <evaluationStatus>final</evaluationStatus>
    <quality>
     <associatedPhaseCount>30</associatedPhaseCount>
     <usedPhaseCount>28</usedPhaseCount>
     <associatedStationCount>17</associatedStationCount>
     <usedStationCount>16</usedStationCount>
     <standardError>0.06</standardError>
     <azimuthalGap>74</azimuthalGap>
     <secondaryAzimuthalGap>388</secondaryAzimuthalGap>
     <minimumDistance>3.217e-02</minimumDistance>
     <medianDistance>1.086e-01</medianDistance>
     <maximumDistance>1.843e-01</maximumDistance>
    </quality>
    <creationInfo>
     <agencyID>UW</agencyID>
     <creationTime>2025-12-04T00:06:01.00</creationTime>
    </creationInfo>
    <originUncertainty>
     <confidenceEllipsoid>
      <semiMajorAxisLength>1032</semiMajorAxisLength>
      <semiMinorAxisLength>456</semiMinorAxisLength>
      <semiIntermediateAxisLength>552</semiIntermediateAxisLength>
      <majorAxisPlunge>72</majorAxisPlunge>
      <majorAxisAzimuth>206</majorAxisAzimuth>
      <majorAxisRotation>27</majorAxisRotation>
     </confidenceEllipsoid>
     <preferredDescription>confidence ellipsoid</preferredDescription>
     <confidenceLevel>95</confidenceLevel>
     <horizontalUncertainty>220</horizontalUncertainty>
    </originUncertainty>
    <methodID>smi:uw.anss.org/origin/HYP2000</methodID>
    <arrival publicID="quakeml:uw.anss.org/AssocArO/UW/18402248">
     <pickID>quakeml:uw.anss.org/Arrival/UW/18402248</pickID>
     <phase>P</phase>
     <azimuth>125.68895620248492</azimuth>
     <distance>5.110e-02</distance>
     <timeResidual>-0.01</timeResidual>
     <timeCorrection>0.02</timeCorrection>
     <timeWeight>0.11</timeWeight>
     <takeoffAngle>
      <value>146</value>
     </takeoffAngle>
     <creationInfo>
      <agencyID>UW</agencyID>
      <creationTime>2025-12-04T00:08:43.00</creationTime>
     </creationInfo>
    </arrival>
    <arrival publicID="quakeml:uw.anss.org/AssocArO/UW/18402253">
     <pickID>quakeml:uw.anss.org/Arrival/UW/18402253</pickID>
     <phase>S</phase>
     <azimuth>125.68895620248492</azimuth>
     <distance>5.110e-02</distance>
     <timeResidual>-0.01</timeResidual>
     <timeCorrection>0.04</timeCorrection>
     <timeWeight>0.11</timeWeight>
     <takeoffAngle>
      <value>146</value>
     </takeoffAngle>
     <creationInfo>
      <agencyID>UW</agencyID>
      <creationTime>2025-12-04T00:08:43.00</creationTime>
     </creationInfo>
    </arrival>
    <arrival publicID="quakeml:uw.anss.org/AssocArO/UW/18402263">
     <pickID>quakeml:uw.anss.org/Arrival/UW/18402263</pickID>
     <phase>S</phase>
     <azimuth>166.27972988228112</azimuth>
     <distance>5.421e-02</distance>
     <timeResidual>0.01</timeResidual>
     <timeCorrection>0.09</timeCorrection>
     <timeWeight>0.11</timeWeight>
     <takeoffAngle>
      <value>145</value>
     </takeoffAngle>
     <creationInfo>
      <agencyID>UW</agencyID>
      <creationTime>2025-12-04T00:08:43.00</creationTime>
     </creationInfo>
    </arrival>
    <arrival publicID="quakeml:uw.anss.org/AssocArO/UW/18402268">
     <pickID>quakeml:uw.anss.org/Arrival/UW/18402268</pickID>
     <phase>P</phase>
     <azimuth>169.82560968157725</azimuth>
     <distance>6.943e-02</distance>
     <timeResidual>0.02</timeResidual>
     <timeCorrection>-0.04</timeCorrection>
     <timeWeight>0.08</timeWeight>
     <takeoffAngle>
      <value>138</value>
     </takeoffAngle>
     <creationInfo>
      <agencyID>UW</agencyID>
      <creationTime>2025-12-04T00:08:43.00</creationTime>
     </creationInfo>
    </arrival>
    <arrival publicID="quakeml:uw.anss.org/AssocArO/UW/18402273">
     <pickID>quakeml:uw.anss.org/Arrival/UW/18402273</pickID>
     <phase>S</phase>
     <azimuth>169.82560968157725</azimuth>
     <distance>6.943e-02</distance>
     <timeResidual>0.07</timeResidual>
     <timeCorrection>-0.07</timeCorrection>
     <timeWeight>0.08</timeWeight>
     <takeoffAngle>
      <value>138</value>
     </takeoffAngle>
     <creationInfo>
      <agencyID>UW</agencyID>
      <creationTime>2025-12-04T00:08:43.00</creationTime>
     </creationInfo>
    </arrival>
    <arrival publicID="quakeml:uw.anss.org/AssocArO/UW/18402278">
     <pickID>quakeml:uw.anss.org/Arrival/UW/18402278</pickID>
     <phase>P</phase>
     <azimuth>332.67726999261214</azimuth>
     <distance>6.168e-02</distance>
     <timeResidual>0</timeResidual>
     <timeCorrection>0.1</timeCorrection>
     <timeWeight>0.11</timeWeight>
     <takeoffAngle>
      <value>141</value>
     </takeoffAngle>
     <creationInfo>
      <agencyID>UW</agencyID>
      <creationTime>2025-12-04T00:08:43.00</creationTime>
     </creationInfo>
    </arrival>
    <arrival publicID="quakeml:uw.anss.org/AssocArO/UW/18402283">
     <pickID>quakeml:uw.anss.org/Arrival/UW/18402283</pickID>
     <phase>S</phase>
     <azimuth>332.67726999261214</azimuth>
     <distance>6.168e-02</distance>
     <timeResidual>0.34</timeResidual>
     <timeCorrection>0.18</timeCorrection>
     <timeWeight>0.00</timeWeight>
     <takeoffAngle>
      <value>141</value>
     </takeoffAngle>
     <creationInfo>
      <agencyID>UW</agencyID>
      <creationTime>2025-12-04T00:08:43.00</creationTime>
     </creationInfo>
    </arrival>
    <arrival publicID="quakeml:uw.anss.org/AssocArO/UW/18402293">
     <pickID>quakeml:uw.anss.org/Arrival/UW/18402293</pickID>
     <phase>P</phase>
     <azimuth>146.77370991299972</azimuth>
     <distance>1.169e-01</distance>
     <timeResidual>-0.06</timeResidual>
     <timeCorrection>-0.07</timeCorrection>
     <timeWeight>0.11</timeWeight>
     <takeoffAngle>
      <value>123</value>
     </takeoffAngle>
     <creationInfo>
      <agencyID>UW</agencyID>
      <creationTime>2025-12-04T00:08:43.00</creationTime>
     </creationInfo>
    </arrival>
    <arrival publicID="quakeml:uw.anss.org/AssocArO/UW/18402298">
     <pickID>quakeml:uw.anss.org/Arrival/UW/18402298</pickID>
     <phase>S</phase>
     <azimuth>146.77370991299972</azimuth>
     <distance>1.169e-01</distance>
     <timeResidual>-0.25</timeResidual>
     <timeCorrection>-0.12</timeCorrection>
     <timeWeight>0.04</timeWeight>
     <takeoffAngle>
      <value>123</value>
     </takeoffAngle>
     <creationInfo>
      <agencyID>UW</agencyID>
      <creationTime>2025-12-04T00:08:43.00</creationTime>
     </creationInfo>
    </arrival>
    <arrival publicID="quakeml:uw.anss.org/AssocArO/UW/18402303">
     <pickID>quakeml:uw.anss.org/Arrival/UW/18402303</pickID>
     <phase>P</phase>
     <azimuth>96.16698372721294</azimuth>
     <distance>1.174e-01</distance>
     <timeResidual>0.13</timeResidual>
     <timeCorrection>-0.01</timeCorrection>
     <timeWeight>0.11</timeWeight>
     <takeoffAngle>
      <value>123</value>
     </takeoffAngle>
     <creationInfo>
      <agencyID>UW</agencyID>
      <creationTime>2025-12-04T00:08:43.00</creationTime>
     </creationInfo>
    </arrival>
    <arrival publicID="quakeml:uw.anss.org/AssocArO/UW/18402308">
     <pickID>quakeml:uw.anss.org/Arrival/UW/18402308</pickID>
     <phase>S</phase>
     <azimuth>96.16698372721294</azimuth>
     <distance>1.174e-01</distance>
     <timeResidual>0.11</timeResidual>
     <timeCorrection>-0.02</timeCorrection>
     <timeWeight>0.11</timeWeight>
     <takeoffAngle>
      <value>123</value>
     </takeoffAngle>
     <creationInfo>
      <agencyID>UW</agencyID>
      <creationTime>2025-12-04T00:08:43.00</creationTime>
     </creationInfo>
    </arrival>
    <arrival publicID="quakeml:uw.anss.org/AssocArO/UW/18402313">
     <pickID>quakeml:uw.anss.org/Arrival/UW/18402313</pickID>
     <phase>P</phase>
     <azimuth>119.28897962674</azimuth>
     <distance>1.266e-01</distance>
     <timeResidual>-0.02</timeResidual>
     <timeCorrection>-0.02</timeCorrection>
     <timeWeight>0.15</timeWeight>
     <takeoffAngle>
      <value>121</value>
     </takeoffAngle>
     <creationInfo>
      <agencyID>UW</agencyID>
      <creationTime>2025-12-04T00:08:43.00</creationTime>
     </creationInfo>
    </arrival>
    <arrival publicID="quakeml:uw.anss.org/AssocArO/UW/18402318">
     <pickID>quakeml:uw.anss.org/Arrival/UW/18402318</pickID>
     <phase>S</phase>
     <azimuth>119.28897962674</azimuth>
     <distance>1.266e-01</distance>
     <timeResidual>-0.08</timeResidual>
     <timeCorrection>-0.04</timeCorrection>
     <timeWeight>0.11</timeWeight>
     <takeoffAngle>
      <value>121</value>
     </takeoffAngle>
     <creationInfo>
      <agencyID>UW</agencyID>
      <creationTime>2025-12-04T00:08:43.00</creationTime>
     </creationInfo>
    </arrival>
    <arrival publicID="quakeml:uw.anss.org/AssocArO/UW/18402328">
     <pickID>quakeml:uw.anss.org/Arrival/UW/18402328</pickID>
     <phase>S</phase>
     <azimuth>86.46698855347938</azimuth>
     <distance>1.790e-01</distance>
     <timeResidual>0.03</timeResidual>
     <timeCorrection>-0.14</timeCorrection>
     <timeWeight>0.08</timeWeight>
     <takeoffAngle>
      <value>113</value>
     </takeoffAngle>
     <creationInfo>
      <agencyID>UW</agencyID>
      <creationTime>2025-12-04T00:08:43.00</creationTime>
     </creationInfo>
    </arrival>
    <arrival publicID="quakeml:uw.anss.org/AssocArO/UW/18402333">
     <pickID>quakeml:uw.anss.org/Arrival/UW/18402333</pickID>
     <phase>P</phase>
     <azimuth>59.31232776052951</azimuth>
     <distance>1.843e-01</distance>
     <timeResidual>0</timeResidual>
     <timeCorrection>-0.1</timeCorrection>
     <timeWeight>0.11</timeWeight>
     <takeoffAngle>
      <value>112</value>
     </takeoffAngle>
     <creationInfo>
      <agencyID>UW</agencyID>
      <creationTime>2025-12-04T00:08:43.00</creationTime>
     </creationInfo>
    </arrival>
    <arrival publicID="quakeml:uw.anss.org/AssocArO/UW/18402338">
     <pickID>quakeml:uw.anss.org/Arrival/UW/18402338</pickID>
     <phase>S</phase>
     <azimuth>59.31232776052951</azimuth>
     <distance>1.843e-01</distance>
     <timeResidual>-0.1</timeResidual>
     <timeCorrection>-0.18</timeCorrection>
     <timeWeight>0.11</timeWeight>
     <takeoffAngle>
      <value>112</value>
     </takeoffAngle>
     <creationInfo>
      <agencyID>UW</agencyID>
      <creationTime>2025-12-04T00:08:43.00</creationTime>
     </creationInfo>
    </arrival>
    <arrival publicID="quakeml:uw.anss.org/AssocArO/UW/18408533">
     <pickID>quakeml:uw.anss.org/Arrival/UW/18408533</pickID>
     <phase>P</phase>
     <azimuth>258.11802306544524</azimuth>
     <distance>3.217e-02</distance>
     <timeResidual>0.07</timeResidual>
     <timeCorrection>0.02</timeCorrection>
     <timeWeight>0.11</timeWeight>
     <takeoffAngle>
      <value>157</value>
     </takeoffAngle>
     <creationInfo>
      <agencyID>UW</agencyID>
      <creationTime>2025-12-04T00:08:43.00</creationTime>
     </creationInfo>
    </arrival>
    <arrival publicID="quakeml:uw.anss.org/AssocArO/UW/18408538">
     <pickID>quakeml:uw.anss.org/Arrival/UW/18408538</pickID>
     <phase>S</phase>
     <azimuth>258.11802306544524</azimuth>
     <distance>3.217e-02</distance>
     <timeResidual>0.02</timeResidual>
     <timeCorrection>0.04</timeCorrection>
     <timeWeight>0.08</timeWeight>
     <takeoffAngle>
      <value>157</value>
     </takeoffAngle>
     <creationInfo>
      <agencyID>UW</agencyID>
      <creationTime>2025-12-04T00:08:43.00</creationTime>
     </creationInfo>
    </arrival>
    <arrival publicID="quakeml:uw.anss.org/AssocArO/UW/18408543">
     <pickID>quakeml:uw.anss.org/Arrival/UW/18408543</pickID>
     <phase>P</phase>
     <azimuth>166.27972988228112</azimuth>
     <distance>5.421e-02</distance>
     <timeResidual>-0.07</timeResidual>
     <timeCorrection>0.05</timeCorrection>
     <timeWeight>0.11</timeWeight>
     <takeoffAngle>
      <value>145</value>
     </takeoffAngle>
     <creationInfo>
      <agencyID>UW</agencyID>
      <creationTime>2025-12-04T00:08:43.00</creationTime>
     </creationInfo>
    </arrival>
    <arrival publicID="quakeml:uw.anss.org/AssocArO/UW/18408548">
     <pickID>quakeml:uw.anss.org/Arrival/UW/18408548</pickID>
     <phase>P</phase>
     <azimuth>140.2008726331328</azimuth>
     <distance>5.733e-02</distance>
     <timeResidual>0.02</timeResidual>
     <timeCorrection>-0.04</timeCorrection>
     <timeWeight>0.11</timeWeight>
     <takeoffAngle>
      <value>143</value>
     </takeoffAngle>
     <creationInfo>
      <agencyID>UW</agencyID>
      <creationTime>2025-12-04T00:08:43.00</creationTime>
     </creationInfo>
    </arrival>
    <arrival publicID="quakeml:uw.anss.org/AssocArO/UW/18408553">
     <pickID>quakeml:uw.anss.org/Arrival/UW/18408553</pickID>
     <phase>S</phase>
     <azimuth>140.2008726331328</azimuth>
     <distance>5.733e-02</distance>
     <timeResidual>-0.06</timeResidual>
     <timeCorrection>-0.07</timeCorrection>
     <timeWeight>0.11</timeWeight>
     <takeoffAngle>
      <value>143</value>
     </takeoffAngle>
     <creationInfo>
      <agencyID>UW</agencyID>
      <creationTime>2025-12-04T00:08:43.00</creationTime>
     </creationInfo>
    </arrival>
    <arrival publicID="quakeml:uw.anss.org/AssocArO/UW/18408558">
     <pickID>quakeml:uw.anss.org/Arrival/UW/18408558</pickID>
     <phase>P</phase>
     <azimuth>49.35774328042305</azimuth>
     <distance>7.912e-02</distance>
     <timeResidual>0.04</timeResidual>
     <timeCorrection>0.08</timeCorrection>
     <timeWeight>0.11</timeWeight>
     <takeoffAngle>
      <value>134</value>
     </takeoffAngle>
     <creationInfo>
      <agencyID>UW</agencyID>
      <creationTime>2025-12-04T00:08:43.00</creationTime>
     </creationInfo>
    </arrival>
    <arrival publicID="quakeml:uw.anss.org/AssocArO/UW/18408563">
     <pickID>quakeml:uw.anss.org/Arrival/UW/18408563</pickID>
     <phase>P</phase>
     <azimuth>114.74406831126794</azimuth>
     <distance>9.624e-02</distance>
     <timeResidual>0.05</timeResidual>
     <timeCorrection>-0.03</timeCorrection>
     <timeWeight>0.11</timeWeight>
     <takeoffAngle>
      <value>128</value>
     </takeoffAngle>
     <creationInfo>
      <agencyID>UW</agencyID>
      <creationTime>2025-12-04T00:08:43.00</creationTime>
     </creationInfo>
    </arrival>
    <arrival publicID="quakeml:uw.anss.org/AssocArO/UW/18408568">
     <pickID>quakeml:uw.anss.org/Arrival/UW/18408568</pickID>
     <phase>S</phase>
     <azimuth>114.74406831126794</azimuth>
     <distance>9.624e-02</distance>
     <timeResidual>0.03</timeResidual>
     <timeCorrection>-0.05</timeCorrection>
     <timeWeight>0.11</timeWeight>
     <takeoffAngle>
      <value>128</value>
     </takeoffAngle>
     <creationInfo>
      <agencyID>UW</agencyID>
      <creationTime>2025-12-04T00:08:43.00</creationTime>
     </creationInfo>
    </arrival>
    <arrival publicID="quakeml:uw.anss.org/AssocArO/UW/18408573">
     <pickID>quakeml:uw.anss.org/Arrival/UW/18408573</pickID>
     <phase>P</phase>
     <azimuth>184.9839204235149</azimuth>
     <distance>1.086e-01</distance>
     <timeResidual>-0.06</timeResidual>
     <timeCorrection>0.06</timeCorrection>
     <timeWeight>0.08</timeWeight>
     <takeoffAngle>
      <value>125</value>
     </takeoffAngle>
     <creationInfo>
      <agencyID>UW</agencyID>
      <creationTime>2025-12-04T00:08:43.00</creationTime>
     </creationInfo>
    </arrival>
    <arrival publicID="quakeml:uw.anss.org/AssocArO/UW/18408578">
     <pickID>quakeml:uw.anss.org/Arrival/UW/18408578</pickID>
     <phase>P</phase>
     <azimuth>165.16566610653217</azimuth>
     <distance>1.222e-01</distance>
     <timeResidual>-0.03</timeResidual>
     <timeCorrection>0.1</timeCorrection>
     <timeWeight>0.11</timeWeight>
     <takeoffAngle>
      <value>122</value>
     </takeoffAngle>
     <creationInfo>
      <agencyID>UW</agencyID>
      <creationTime>2025-12-04T00:08:43.00</creationTime>
     </creationInfo>
    </arrival>
    <arrival publicID="quakeml:uw.anss.org/AssocArO/UW/18408583">
     <pickID>quakeml:uw.anss.org/Arrival/UW/18408583</pickID>
     <phase>P</phase>
     <azimuth>335.0672706502627</azimuth>
     <distance>1.303e-01</distance>
     <timeResidual>0.05</timeResidual>
     <timeCorrection>0.03</timeCorrection>
     <timeWeight>0.11</timeWeight>
     <takeoffAngle>
      <value>120</value>
     </takeoffAngle>
     <creationInfo>
      <agencyID>UW</agencyID>
      <creationTime>2025-12-04T00:08:43.00</creationTime>
     </creationInfo>
    </arrival>
    <arrival publicID="quakeml:uw.anss.org/AssocArO/UW/18408588">
     <pickID>quakeml:uw.anss.org/Arrival/UW/18408588</pickID>
     <phase>S</phase>
     <azimuth>335.0672706502627</azimuth>
     <distance>1.303e-01</distance>
     <timeResidual>-0.1</timeResidual>
     <timeCorrection>0.05</timeCorrection>
     <timeWeight>0.11</timeWeight>
     <takeoffAngle>
      <value>120</value>
     </takeoffAngle>
     <creationInfo>
      <agencyID>UW</agencyID>
      <creationTime>2025-12-04T00:08:43.00</creationTime>
     </creationInfo>
    </arrival>
    <arrival publicID="quakeml:uw.anss.org/AssocArO/UW/18408593">
     <pickID>quakeml:uw.anss.org/Arrival/UW/18408593</pickID>
     <phase>S</phase>
     <azimuth>344.1829239869055</azimuth>
     <distance>1.454e-01</distance>
     <timeResidual>-0.29</timeResidual>
     <timeCorrection>-0.14</timeCorrection>
     <timeWeight>0.00</timeWeight>
     <takeoffAngle>
      <value>117</value>
     </takeoffAngle>
     <creationInfo>
      <agencyID>UW</agencyID>
      <creationTime>2025-12-04T00:08:43.00</creationTime>
     </creationInfo>
    </arrival>
    <arrival publicID="quakeml:uw.anss.org/AssocArO/UW/18408598">
     <pickID>quakeml:uw.anss.org/Arrival/UW/18408598</pickID>
     <phase>P</phase>
     <azimuth>86.46698855347938</azimuth>
     <distance>1.790e-01</distance>
     <timeResidual>0</timeResidual>
     <timeCorrection>-0.08</timeCorrection>
     <timeWeight>0.08</timeWeight>
     <takeoffAngle>
      <value>113</value>
     </takeoffAngle>
     <creationInfo>
      <agencyID>UW</agencyID>
      <creationTime>2025-12-04T00:08:43.00</creationTime>
     </creationInfo>
    </arrival>
   </origin>
   <magnitude publicID="quakeml:uw.anss.org/Netmag/UW/3427163">
    <mag>
     <value>0.04</value>
     <uncertainty>0.12898012297178285</uncertainty>
    </mag>
    <type>Ml</type>
    <originID>quakeml:uw.anss.org/Origin/UW/3364353</originID>
    <stationCount>9</stationCount>
    <azimuthalGap>111.34431315244552</azimuthalGap>
    <evaluationMode>manual</evaluationMode>
    <evaluationStatus>reviewed</evaluationStatus>
    <creationInfo>
